CCSDS_OMM_VERS = 2.0
CREATION_DATE  = 
ORIGINATOR     = 

OBJECT_NAME    = STARLINK-37139
OBJECT_ID      = 2026-057Z
CENTER_NAME    = EARTH
REF_FRAME      = TEME
TIME_SYSTEM    = UTC
MEAN_ELEMENT_THEORY = SGP/SGP4

EPOCH          = 2026-03-31T14:00:01.999872
MEAN_MOTION    = 15.97172444
ECCENTRICITY   = .00013469
INCLINATION    = 97.2750
RA_OF_ASC_NODE = 213.9671
ARG_OF_PERICENTER = 75.3900
MEAN_ANOMALY   = 198.2827

EPHEMERIS_TYPE = 0
CLASSIFICATION_TYPE = U
NORAD_CAT_ID   = 68317
ELEMENT_SET_NO = 999
REV_AT_EPOCH   = 253
BSTAR          = -.33802725E-2
MEAN_MOTION_DOT = -.1454146E-1
MEAN_MOTION_DDOT = .63542776E-3

CCSDS_OMM_VERS = 2.0
CREATION_DATE  = 
ORIGINATOR     = 

OBJECT_NAME    = STARLINK-37113
OBJECT_ID      = 2026-057AA
CENTER_NAME    = EARTH
REF_FRAME      = TEME
TIME_SYSTEM    = UTC
MEAN_ELEMENT_THEORY = SGP/SGP4

EPOCH          = 2026-03-31T12:00:02.000160
MEAN_MOTION    = 15.97643016
ECCENTRICITY   = .00015392
INCLINATION    = 97.2748
RA_OF_ASC_NODE = 213.8809
ARG_OF_PERICENTER = 65.7433
MEAN_ANOMALY   = 97.5267

EPHEMERIS_TYPE = 0
CLASSIFICATION_TYPE = U
NORAD_CAT_ID   = 68318
ELEMENT_SET_NO = 999
REV_AT_EPOCH   = 276
BSTAR          = -.34434318E-2
MEAN_MOTION_DOT = -.1519226E-1
MEAN_MOTION_DDOT = .69266914E-3

CCSDS_OMM_VERS = 2.0
CREATION_DATE  = 
ORIGINATOR     = 

OBJECT_NAME    = PROGRESS-MS 33
OBJECT_ID      = 2026-058A
CENTER_NAME    = EARTH
REF_FRAME      = TEME
TIME_SYSTEM    = UTC
MEAN_ELEMENT_THEORY = SGP/SGP4

EPOCH          = 2026-03-31T12:29:11.465376
MEAN_MOTION    = 15.48680190
ECCENTRICITY   = .00062102
INCLINATION    = 51.6339
RA_OF_ASC_NODE = 324.4353
ARG_OF_PERICENTER = 255.4271
MEAN_ANOMALY   = 104.6029

EPHEMERIS_TYPE = 0
CLASSIFICATION_TYPE = U
NORAD_CAT_ID   = 68319
ELEMENT_SET_NO = 999
REV_AT_EPOCH   = 70
BSTAR          = .22009587E-3
MEAN_MOTION_DOT = .11565E-3
MEAN_MOTION_DDOT = 0

CCSDS_OMM_VERS = 2.0
CREATION_DATE  = 
ORIGINATOR     = 

OBJECT_NAME    = CENTISPACE-1 OBJECT A
OBJECT_ID      = 2026-060A
CENTER_NAME    = EARTH
REF_FRAME      = TEME
TIME_SYSTEM    = UTC
MEAN_ELEMENT_THEORY = SGP/SGP4

EPOCH          = 2026-03-31T12:21:45.797760
MEAN_MOTION    = 14.74883858
ECCENTRICITY   = .00129464
INCLINATION    = 54.9823
RA_OF_ASC_NODE = 352.5868
ARG_OF_PERICENTER = 315.3270
MEAN_ANOMALY   = 44.6686

EPHEMERIS_TYPE = 0
CLASSIFICATION_TYPE = U
NORAD_CAT_ID   = 68350
ELEMENT_SET_NO = 999
REV_AT_EPOCH   = 131
BSTAR          = .21682802E-3
MEAN_MOTION_DOT = .1258E-4
MEAN_MOTION_DDOT = 0

CCSDS_OMM_VERS = 2.0
CREATION_DATE  = 
ORIGINATOR     = 

OBJECT_NAME    = CENTISPACE-1 OBJECT B
OBJECT_ID      = 2026-060B
CENTER_NAME    = EARTH
REF_FRAME      = TEME
TIME_SYSTEM    = UTC
MEAN_ELEMENT_THEORY = SGP/SGP4

EPOCH          = 2026-03-31T12:21:28.554912
MEAN_MOTION    = 14.74924132
ECCENTRICITY   = .001321
INCLINATION    = 54.9824
RA_OF_ASC_NODE = 352.5857
ARG_OF_PERICENTER = 315.6369
MEAN_ANOMALY   = 44.3571

EPHEMERIS_TYPE = 0
CLASSIFICATION_TYPE = U
NORAD_CAT_ID   = 68351
ELEMENT_SET_NO = 999
REV_AT_EPOCH   = 131
BSTAR          = .31736858E-3
MEAN_MOTION_DOT = .1941E-4
MEAN_MOTION_DDOT = 0

CCSDS_OMM_VERS = 2.0
CREATION_DATE  = 
ORIGINATOR     = 

OBJECT_NAME    = CENTISPACE-1 OBJECT C
OBJECT_ID      = 2026-060C
CENTER_NAME    = EARTH
REF_FRAME      = TEME
TIME_SYSTEM    = UTC
MEAN_ELEMENT_THEORY = SGP/SGP4

EPOCH          = 2026-03-31T05:49:36.636096
MEAN_MOTION    = 14.75097127
ECCENTRICITY   = .0012697
INCLINATION    = 54.9817
RA_OF_ASC_NODE = 353.6849
ARG_OF_PERICENTER = 320.7050
MEAN_ANOMALY   = 39.3027

EPHEMERIS_TYPE = 0
CLASSIFICATION_TYPE = U
NORAD_CAT_ID   = 68352
ELEMENT_SET_NO = 999
REV_AT_EPOCH   = 127
BSTAR          = .42132E-4
MEAN_MOTION_DOT = .77E-6
MEAN_MOTION_DDOT = 0

CCSDS_OMM_VERS = 2.0
CREATION_DATE  = 
ORIGINATOR     = 

OBJECT_NAME    = CENTISPACE-1 OBJECT D
OBJECT_ID      = 2026-060D
CENTER_NAME    = EARTH
REF_FRAME      = TEME
TIME_SYSTEM    = UTC
MEAN_ELEMENT_THEORY = SGP/SGP4

EPOCH          = 2026-03-31T12:19:36.304032
MEAN_MOTION    = 14.75128916
ECCENTRICITY   = .00132122
INCLINATION    = 54.9893
RA_OF_ASC_NODE = 352.5746
ARG_OF_PERICENTER = 325.1986
MEAN_ANOMALY   = 34.8148

EPHEMERIS_TYPE = 0
CLASSIFICATION_TYPE = U
NORAD_CAT_ID   = 68353
ELEMENT_SET_NO = 999
REV_AT_EPOCH   = 131
BSTAR          = .43489466E-4
MEAN_MOTION_DOT = .86E-6
MEAN_MOTION_DDOT = 0

CCSDS_OMM_VERS = 2.0
CREATION_DATE  = 
ORIGINATOR     = 

OBJECT_NAME    = CENTISPACE-1 OBJECT E
OBJECT_ID      = 2026-060E
CENTER_NAME    = EARTH
REF_FRAME      = TEME
TIME_SYSTEM    = UTC
MEAN_ELEMENT_THEORY = SGP/SGP4

EPOCH          = 2026-03-31T12:19:04.029312
MEAN_MOTION    = 14.75200455
ECCENTRICITY   = .00133969
INCLINATION    = 54.9767
RA_OF_ASC_NODE = 352.5718
ARG_OF_PERICENTER = 322.1921
MEAN_ANOMALY   = 37.8136

EPHEMERIS_TYPE = 0
CLASSIFICATION_TYPE = U
NORAD_CAT_ID   = 68354
ELEMENT_SET_NO = 999
REV_AT_EPOCH   = 131
BSTAR          = .43483032E-4
MEAN_MOTION_DOT = .86E-6
MEAN_MOTION_DDOT = 0

CCSDS_OMM_VERS = 2.0
CREATION_DATE  = 
ORIGINATOR     = 

OBJECT_NAME    = CENTISPACE-1 OBJECT F
OBJECT_ID      = 2026-060F
CENTER_NAME    = EARTH
REF_FRAME      = TEME
TIME_SYSTEM    = UTC
MEAN_ELEMENT_THEORY = SGP/SGP4

EPOCH          = 2026-03-31T12:18:46.450368
MEAN_MOTION    = 14.75237577
ECCENTRICITY   = .00138317
INCLINATION    = 54.9765
RA_OF_ASC_NODE = 352.5699
ARG_OF_PERICENTER = 321.1731
MEAN_ANOMALY   = 38.8273

EPHEMERIS_TYPE = 0
CLASSIFICATION_TYPE = U
NORAD_CAT_ID   = 68355
ELEMENT_SET_NO = 999
REV_AT_EPOCH   = 131
BSTAR          = .43509261E-4
MEAN_MOTION_DOT = .87E-6
MEAN_MOTION_DDOT = 0

CCSDS_OMM_VERS = 2.0
CREATION_DATE  = 
ORIGINATOR     = 

OBJECT_NAME    = CENTISPACE-1 OBJECT G
OBJECT_ID      = 2026-060G
CENTER_NAME    = EARTH
REF_FRAME      = TEME
TIME_SYSTEM    = UTC
MEAN_ELEMENT_THEORY = SGP/SGP4

EPOCH          = 2026-03-31T12:18:06.094656
MEAN_MOTION    = 14.75312277
ECCENTRICITY   = .00138605
INCLINATION    = 54.9876
RA_OF_ASC_NODE = 352.5764
ARG_OF_PERICENTER = 322.1496
MEAN_ANOMALY   = 37.8528

EPHEMERIS_TYPE = 0
CLASSIFICATION_TYPE = U
NORAD_CAT_ID   = 68356
ELEMENT_SET_NO = 999
REV_AT_EPOCH   = 131
BSTAR          = .43635396E-4
MEAN_MOTION_DOT = .88E-6
MEAN_MOTION_DDOT = 0

CCSDS_OMM_VERS = 2.0
CREATION_DATE  = 
ORIGINATOR     = 

OBJECT_NAME    = CENTISPACE-1 OBJECT H
OBJECT_ID      = 2026-060H
CENTER_NAME    = EARTH
REF_FRAME      = TEME
TIME_SYSTEM    = UTC
MEAN_ELEMENT_THEORY = SGP/SGP4

EPOCH          = 2026-03-25T14:49:38.254368
MEAN_MOTION    = 14.75425125
ECCENTRICITY   = .00144709
INCLINATION    = 54.9848
RA_OF_ASC_NODE = 16.6351
ARG_OF_PERICENTER = 304.4277
MEAN_ANOMALY   = 55.5354

EPHEMERIS_TYPE = 0
CLASSIFICATION_TYPE = U
NORAD_CAT_ID   = 68357
ELEMENT_SET_NO = 999
REV_AT_EPOCH   = 44
BSTAR          = .33491501E-4
MEAN_MOTION_DOT = .19E-6
MEAN_MOTION_DDOT = 0

CCSDS_OMM_VERS = 2.0
CREATION_DATE  = 
ORIGINATOR     = 

OBJECT_NAME    = CENTISPACE-1 OBJECT J
OBJECT_ID      = 2026-060J
CENTER_NAME    = EARTH
REF_FRAME      = TEME
TIME_SYSTEM    = UTC
MEAN_ELEMENT_THEORY = SGP/SGP4

EPOCH          = 2026-03-31T12:17:11.807808
MEAN_MOTION    = 14.75410311
ECCENTRICITY   = .00146973
INCLINATION    = 54.9875
RA_OF_ASC_NODE = 352.5711
ARG_OF_PERICENTER = 323.9240
MEAN_ANOMALY   = 36.0767

EPHEMERIS_TYPE = 0
CLASSIFICATION_TYPE = U
NORAD_CAT_ID   = 68358
ELEMENT_SET_NO = 999
REV_AT_EPOCH   = 131
BSTAR          = .43862919E-4
MEAN_MOTION_DOT = .9E-6
MEAN_MOTION_DDOT = 0

