STARLINK-37139          
1 68317U 26057Z   26090.58335648 -.01454146  63543-3 -33803-2 0  9994
2 68317  97.2750 213.9671 0001346  75.3900 198.2827 15.97172444  2535
STARLINK-37113          
1 68318U 26057AA  26090.50002315 -.01519226  69267-3 -34434-2 0  9990
2 68318  97.2748 213.8809 0001539  65.7433  97.5267 15.97643016  2765
PROGRESS-MS 33          
1 68319U 26058A   26090.52027159  .00011565  00000+0  22010-3 0  9991
2 68319  51.6339 324.4353 0006210 255.4271 104.6029 15.48680190   706
CENTISPACE-1 OBJECT A   
1 68350U 26060A   26090.51511340  .00001258  00000+0  21683-3 0  9991
2 68350  54.9823 352.5868 0012946 315.3270  44.6686 14.74883858  1310
CENTISPACE-1 OBJECT B   
1 68351U 26060B   26090.51491383  .00001941  00000+0  31737-3 0  9996
2 68351  54.9824 352.5857 0013210 315.6369  44.3571 14.74924132  1318
CENTISPACE-1 OBJECT C   
1 68352U 26060C   26090.24278514  .00000077  00000+0  42132-4 0  9997
2 68352  54.9817 353.6849 0012697 320.7050  39.3027 14.75097127  1277
CENTISPACE-1 OBJECT D   
1 68353U 26060D   26090.51361463  .00000086  00000+0  43489-4 0  9990
2 68353  54.9893 352.5746 0013212 325.1986  34.8148 14.75128916  1317
CENTISPACE-1 OBJECT E   
1 68354U 26060E   26090.51324108  .00000086  00000+0  43483-4 0  9990
2 68354  54.9767 352.5718 0013396 322.1921  37.8136 14.75200455  1315
CENTISPACE-1 OBJECT F   
1 68355U 26060F   26090.51303762  .00000087  00000+0  43509-4 0  9994
2 68355  54.9765 352.5699 0013831 321.1731  38.8273 14.75237577  1312
CENTISPACE-1 OBJECT G   
1 68356U 26060G   26090.51257054  .00000088  00000+0  43635-4 0  9998
2 68356  54.9876 352.5764 0013860 322.1496  37.8528 14.75312277  1313
CENTISPACE-1 OBJECT H   
1 68357U 26060H   26084.61780387  .00000019  00000+0  33492-4 0  9997
2 68357  54.9848  16.6351 0014470 304.4277  55.5354 14.75425125   445
CENTISPACE-1 OBJECT J   
1 68358U 26060J   26090.51194222  .00000090  00000+0  43863-4 0  9993
2 68358  54.9875 352.5711 0014697 323.9240  36.0767 14.75410311  1315
